OBJECT_NAME,OBJECT_ID,EPOCH,MEAN_MOTION,ECCENTRICITY,INCLINATION,RA_OF_ASC_NODE,ARG_OF_PERICENTER,MEAN_ANOMALY,EPHEMERIS_TYPE,CLASSIFICATION_TYPE,NORAD_CAT_ID,ELEMENT_SET_NO,REV_AT_EPOCH,BSTAR,MEAN_MOTION_DOT,MEAN_MOTION_DDOT
GEISAT PRECURSOR,2023-084C,2026-07-16T19:37:03.787680,15.35023724,.0004595,97.6262,339.7595,223.0833,137.0050,0,U,56934,999,17207,.12315E-3,.4099E-4,0
BLACKJACK ACES-3,2023-084U,2026-07-16T19:42:34.100928,15.18797425,.0000871,97.6249,333.2479,215.7210,144.3965,0,U,56950,999,17166,.13094E-3,.2653E-4,0
BLACKJACK ACES-2,2023-084Z,2026-07-16T15:06:35.466624,15.18745909,.000171,97.6247,333.1383,137.3269,222.8098,0,U,56955,999,17164,.16158E-3,.3286E-4,0
BLACKJACK ACES-1,2023-084AA,2026-07-16T19:33:10.658016,15.18751806,.0002017,97.6240,333.0969,117.3031,242.8408,0,U,56956,999,12139,.13373E-3,.2708E-4,0
ION SCV-011,2023-084AB,2026-07-16T13:57:36.567936,15.29104816,.0005905,98.1377,27.5905,300.0903,59.9748,0,U,56957,999,17030,.10245E-3,.2806E-4,0
GHOST-3,2023-084AC,2026-07-16T08:59:30.090048,15.48814226,.0006864,97.6249,347.5377,180.9226,179.2013,0,U,56958,999,17253,.19692E-3,.10496E-3,0
AFR-1,2023-084AJ,2026-07-16T19:39:49.685184,15.28784612,.000937,97.6313,335.2342,228.5016,131.5420,0,U,56964,999,17175,.88658E-4,.2403E-4,0
METEOR-M2 3,2023-091A,2026-07-16T21:21:06.352704,14.24048987,.0005142,98.6067,252.2577,86.4652,273.7115,0,U,57166,999,15874,.97888E-5,-.21E-6,0
UMKA 1 (RS40S),2023-091G,2026-07-16T19:55:50.930112,15.21131519,.0012885,97.5033,256.4172,24.0850,336.0986,0,U,57172,999,16851,.14039E-3,.306E-4,0
2023-091H,2023-091H,2026-07-16T19:55:19.119360,15.29236571,.0009406,97.5030,261.2721,19.6187,340.5413,0,U,57173,999,16883,.22061E-3,.6188E-4,0
2023-091J,2023-091J,2026-07-16T20:42:58.606848,15.14118036,.0014293,97.5041,250.5371,50.8755,309.3744,0,U,57174,999,16812,.10583E-3,.1866E-4,0
CUBEBEL 2 (EU11S),2023-091K,2026-07-16T19:40:45.241248,15.29846714,.0009376,97.5032,261.3138,20.9988,339.1635,0,U,57175,999,16883,.24225E-3,.6932E-4,0
SITRO-AIS 5 (KATYS),2023-091L,2026-07-16T19:57:42.094944,15.30086185,.0010479,97.5042,262.0240,6.6080,353.5297,0,U,57176,999,16887,.22519E-3,.6488E-4,0
ZORKIY-2M 1,2023-091M,2026-07-16T19:33:12.167424,15.21261556,.0013246,97.5072,256.6905,20.8883,339.2891,0,U,57177,999,16850,.15258E-3,.3345E-4,0
CUBESX-HSE 3 (RS42S),2023-091N,2026-07-16T20:03:02.130912,15.31908219,.0009499,97.5074,263.8097,356.0319,4.0845,0,U,57178,999,16896,.23002E-3,.7015E-4,0
MONITOR-3 (RS58S),2023-091Q,2026-07-16T20:40:15.163104,15.28391451,.0010812,97.5066,261.5342,3.9001,356.2321,0,U,57180,999,16882,.20822E-3,.5688E-4,0
MONITOR-4 (RS57S),2023-091S,2026-07-16T20:07:42.699360,15.28478325,.0010803,97.5059,261.4842,4.1698,355.9629,0,U,57182,999,16882,.2087E-3,.5716E-4,0
MONITOR-2 (RS39S),2023-091U,2026-07-16T19:46:04.529856,15.19162740,.0011219,97.5054,255.9171,18.6023,341.5619,0,U,57184,999,16845,.12069E-3,.2471E-4,0
SVYATOBOR 1 (RS60S),2023-091X,2026-07-16T19:30:09.296640,15.27078729,.0008596,97.5073,261.8007,358.8195,1.3022,0,U,57187,999,16883,.18035E-3,.4719E-4,0
HORS 1,2023-091Y,2026-07-16T20:40:32.200320,15.27199030,.0008035,97.5050,261.6084,359.0019,1.1202,0,U,57188,999,16884,.1894E-3,.4977E-4,0
VIZARD-METEO (RS38S),2023-091Z,2026-07-16T20:16:31.551168,15.36906017,.0005526,97.5075,267.9415,332.6448,27.4505,0,U,57189,999,16924,.26257E-3,.9396E-4,0
SITRO-AIS 6 (CHIRKIN),2023-091AC,2026-07-16T19:33:00.741024,15.26454955,.0011002,97.5050,260.9661,10.9737,349.1739,0,U,57192,999,16880,.20163E-3,.5189E-4,0
SITRO-AIS 8 (ANOKHIN),2023-091AD,2026-07-16T20:39:55.527840,15.32885018,.0009334,97.5038,263.7660,2.1281,357.9999,0,U,57193,999,16899,.26421E-3,.8322E-4,0
SITRO-AIS 7 (FARTUSHNIY),2023-091AE,2026-07-16T19:46:27.685920,15.26128522,.0010976,97.5046,260.7847,12.1825,347.9677,0,U,57194,999,16879,.19644E-3,.5003E-4,0
AVION KALUGA 650,2023-091AF,2026-07-16T20:12:51.060096,15.20642046,.001029,97.5072,257.3016,17.0452,343.1127,0,U,57195,999,16853,.13836E-3,.2969E-4,0
HORS 2,2023-091AG,2026-07-16T19:30:20.052576,15.32586225,.0006678,97.5072,265.2588,349.1386,10.9710,0,U,57196,999,16906,.24169E-3,.7529E-4,0
A-SEANSAT-PG1,2023-091AH,2026-07-16T19:40:29.251200,15.37918276,.0005513,97.5065,268.0523,342.7643,17.3413,0,U,57197,999,16926,.28932E-3,.10709E-3,0
SITRO-AIS 10 (BURDAEV),2023-091AK,2026-07-16T19:54:57.161664,15.39665465,.0004722,97.5065,269.1017,334.1674,25.9335,0,U,57199,999,16932,.29199E-3,.11444E-3,0
SITRO-AIS 9 (SHCHUKIN),2023-091AM,2026-07-16T20:46:54.744960,15.39150934,.0004998,97.5063,268.8449,334.4028,25.6969,0,U,57201,999,16931,.30362E-3,.11705E-3,0
UTMN 2 (RS27S),2023-091AP,2026-07-16T20:05:22.339104,15.32724928,.0006571,97.5070,265.4811,343.8701,16.2330,0,U,57203,999,16908,.21592E-3,.6746E-4,0
